CZ-2D R/B               
1 28738U 05024B   26066.01530806  .00048913  00000+0  60724-3 0  9998
2 28738  97.3597  81.0635 0006290  53.4811 306.7024 15.59849903139369
ALOS (DAICHI)           
1 28931U 06002A   26066.12023986  .00001839  00000+0  31641-3 0  9990
2 28931  98.1215  22.0886 0001018  53.7102 306.4198 14.69799645 73107
H-2A R/B                
1 28932U 06002B   26065.96967034  .00011526  00000+0  57777-3 0  9995
2 28932  98.2405 212.7593 0051979 250.4216 109.1398 15.16344462 94026
RESURS-DK 1             
1 29228U 06021A   26065.89049273  .00003438  00000+0  20190-3 0  9995
2 29228  69.9310 244.2641 0002145 163.7769 196.3466 15.12718353 87104
CZ-4B R/B               
1 29507U 06046C   26066.10249541  .00004944  00000+0  25153-3 0  9994
2 29507  97.5594 111.0178 0031651 276.7665  82.9966 15.16870457 59657
CZ-2C R/B               
1 31114U 07010B   26066.18968470  .00000159  00000+0  92326-4 0  9991
2 31114  98.3977 179.5938 0057949 302.0241  57.5314 14.20245016979367
COSMO-SKYMED 1          
1 31598U 07023A   26066.19054748  .00003983  00000+0  35570-3 0  9991
2 31598  97.8866 257.2026 0000992 100.1471 259.9861 14.96508951 14531
COSMOS 2428             
1 31792U 07029A   26066.12768954  .00000071  00000+0  63552-4 0  9994
2 31792  70.9428 208.7201 0008993 279.6115  80.3990 14.12945507963739
SL-16 R/B               
1 31793U 07029B   26066.04035022 -.00000060  00000+0 -63099-5 0  9996
2 31793  70.9757 177.9533 0002359 277.0170 255.5967 14.14833235964998
KORONAS-FOTON           
1 33504U 09003A   26066.04106689  .00012247  00000+0  27419-3 0  9992
2 33504  82.4274 278.6320 0011087 158.6844 201.4867 15.43244793945339
CZ-2C R/B               
1 37731U 11030B   26065.91070544  .00002275  00000+0  29230-3 0  9999
2 37731  97.8547  23.2296 0052695   1.1084  64.9090 14.81208917789685
H-2A R/B                
1 38341U 12025E   26066.18551808  .00005281  00000+0  47843-3 0  9999
2 38341  98.4735  33.0310 0043496 322.8445  36.9764 14.95140776747840
SHIJIAN-16 (SJ-16)      
1 39358U 13057A   26066.21562574  .00006691  00000+0  65523-3 0  9991
2 39358  74.9734 189.7706 0015579 119.0998 241.1752 14.92336200671136
SL-4 R/B                
1 39679U 14021B   26066.16164549  .00016718  00000+0  36867-3 0  9993
2 39679  51.6088 349.6101 0097799  93.7843 267.4330 15.39078300655886
ALOS-2                  
1 39766U 14029A   26066.21645155  .00002240  00000+0  30662-3 0  9993
2 39766  97.9197 164.8492 0001441  97.0904 263.0472 14.79490574636502
YAOGAN-29               
1 41038U 15069A   26066.16306392  .00000740  00000+0  97810-4 0  9996
2 41038  98.0141  94.5854 0002050  40.8375 319.2992 14.82992136555500
ASTRO-H (HITOMI)        
1 41337U 16012A   26066.12217840  .00004009  00000+0  23498-3 0  9994
2 41337  31.0009  13.1152 0009946 305.3698  54.6010 15.09982796551843
HXMT (HUIYAN)           
1 42758U 17034A   26066.21052609  .00007085  00000+0  35463-3 0  9999
2 42758  43.0153  30.4553 0032671 220.8483 138.9915 15.17419323482163
SAOCOM 1A               
1 43641U 18076A   26066.19509066  .00000269  00000+0  40298-4 0  9999
2 43641  97.8886 254.4024 0001261  84.1291 276.0066 14.82164686400997
H-2A R/B                
1 43682U 18084L   26066.13599298  .00023554  00000+0  56234-3 0  9991
2 43682  98.8727 282.9784 0025588  34.0036 326.2840 15.41209650405388
SAOCOM 1B               
1 46265U 20059A   26065.95626301  .00001349  00000+0  17595-3 0  9996
2 46265  97.8885 253.2654 0001505  81.2285 278.9098 14.82173062298347
CSS (TIANHE)            
1 48274U 21035A   26066.09178101  .00025371  00000+0  30186-3 0  9991
2 48274  41.4664 223.9664 0006989 257.1897 102.8161 15.60509219277200
COSMOS 2550             
1 48865U 21056A   26066.23506381 -.00000196  00000+0 -13724-6 0  9993
2 48865  67.1450  48.3566 0008303 269.5179  90.5024 15.33836733263082
CZ-2C R/B               
1 52794U 22058K   26066.13338957  .00039060  00000+0  57387-3 0  9993
2 52794  50.1900 331.4375 0042250 189.9988 170.0146 15.54005208209735
CZ-2C R/B               
1 54039U 22132E   26066.12902403  .00045460  00000+0  52352-3 0  9990
2 54039  97.2967  69.3684 0020782  99.7126 260.6480 15.61583148189974
GSLV R/B                
1 54149U 22138AN  26065.44486864  .00004158  00000+0  35960-3 0  9995
2 54149  87.3884 167.4484 0022605 157.9205 202.3006 14.96748090183442
XRISM                   
1 57800U 23137A   26066.06514176  .00006397  00000+0  36310-3 0  9996
2 57800  31.0025 300.6391 0008035  11.7936 348.2890 15.11463036137395
ACS3                    
1 59588U 24077B   26065.76168821  .00023846  00000+0  19238-1 0  9999
2 59588  97.2093   7.5319 0057601  84.3551 276.4178 13.89448421 93794
SZ-21 MODULE            
1 66515U 25246C   26065.50767940  .00041950  00000+0  36494-3 0  9996
2 66515  41.4735 222.9439 0001433 292.6372  67.4317 15.68252686 17579
